COSMO-SKYMED 1          
1 31598U 07023A   26162.72115240  .00002105  00000+0  18782-3 0  9993
2 31598  97.8848 354.5319 0000996  88.5169 271.6167 14.97073642 28972
COSMOS 2428             
1 31792U 07029A   26162.69239962 -.00000146  00000+0 -52473-4 0  9990
2 31792  70.9372   6.0152 0007221 145.6168 214.5421 14.12929186977374
SL-16 R/B               
1 31793U 07029B   26162.66849257  .00000287  00000+0  17354-3 0  9994
2 31793  70.9764 334.8296 0002225 259.4556 176.4916 14.14852229978668
KORONAS-FOTON           
1 33504U 09003A   26162.51092751  .00010583  00000+0  21864-3 0  9994
2 33504  82.4289 178.1802 0011071 166.2492 193.9060 15.45607253960222
CZ-2C R/B               
1 37731U 11030B   26162.65919244  .00001113  00000+0  14548-3 0  9993
2 37731  97.8653 118.1452 0053451  45.6750 130.5247 14.81457875804002
H-2A R/B                
1 38341U 12025E   26162.67125259  .00003007  00000+0  27131-3 0  9999
2 38341  98.4816 137.3620 0044016   7.2569 352.9277 14.95686479762260
SHIJIAN-16 (SJ-16)      
1 39358U 13057A   26162.74314439  .00001211  00000+0  12023-3 0  9991
2 39358  74.9736   6.9949 0016906 243.4887 116.4568 14.92598822685539
SL-4 R/B                
1 39679U 14021B   26162.42517519  .00010157  00000+0  21183-3 0  9994
2 39679  51.6055 238.9984 0091459  85.0382 276.1037 15.41833581670722
ALOS-2                  
1 39766U 14029A   26162.72854390  .00001205  00000+0  16818-3 0  9996
2 39766  97.9210 259.9704 0001638  89.5715 270.5684 14.79472518650775
YAOGAN-29               
1 41038U 15069A   26162.71289008  .00000799  00000+0  10477-3 0  9995
2 41038  98.0035 191.3372 0002835  64.2487 295.9019 14.83082173569819
ASTRO-H (HITOMI)        
1 41337U 16012A   26162.15306176  .00002143  00000+0  12121-3 0  9993
2 41337  30.9976 113.1571 0009691 193.5931 166.4447 15.10484459566379
HXMT (HUIYAN)           
1 42758U 17034A   26162.54311590  .00003875  00000+0  19424-3 0  9991
2 42758  43.0133 214.4686 0030215 110.0181 250.3925 15.18441281496804
SAOCOM 1A               
1 43641U 18076A   26162.66765390  .00000486  00000+0  67607-4 0  9996
2 43641  97.8888 349.4969 0001567  80.1673 279.9717 14.82143199415280
H-2A R/B                
1 43682U 18084L   26162.62337426  .00019502  00000+0  41197-3 0  9995
2 43682  98.8594  40.2987 0024018  58.8983 301.4613 15.44941664420260
SAOCOM 1B               
1 46265U 20059A   26162.69891639  .00000370  00000+0  52983-4 0  9997
2 46265  97.8892 348.6225 0001510  82.3998 277.7386 14.82167383312676
CSS (TIANHE)            
1 48274U 21035A   26162.53781053  .00016554  00000+0  19807-3 0  9993
2 48274  41.4693 356.3768 0008209  31.5834 328.5496 15.60566891292282
COSMOS 2550             
1 48865U 21056A   26159.80793882  .00006310  00000+0  19790-3 0  9991
2 48865  67.1416 125.2525 0008705 266.0377  93.9783 15.33755463277435
CZ-2C R/B               
1 52794U 22058K   26162.54741186  .00032812  00000+0  37052-3 0  9992
2 52794  50.1845 192.8563 0032809 244.4691 115.2888 15.61464510224765
CZ-2C R/B               
1 54039U 22132E   26162.54787054  .00060778  00000+0  48303-3 0  9996
2 54039  97.2899 169.3229 0016741 101.4335 258.8810 15.70871804205061
GSLV R/B                
1 54149U 22138AN  26162.63732345  .00001920  00000+0  16271-3 0  9990
2 54149  87.3794 134.8480 0022052 162.6749 197.5240 14.97231323197984
XRISM                   
1 57800U 23137A   26162.05302960  .00004483  00000+0  24618-3 0  9990
2 57800  31.0028  39.3338 0007943 262.6424  97.3312 15.12412932151938
ACS3                    
1 59588U 24077B   26162.53459777  .00007151  00000+0  53553-2 0  9995
2 59588  97.1682  82.5854 0060015  68.1976 292.5561 13.93897959107259
CZ-8A R/B               
1 66004U 25231K   26162.46212902 -.00000037  00000+0  45223-4 0  9992
2 66004  50.0047  63.6729 0116472 203.8571 155.6919 14.30153303 34123
SZ-21 MODULE            
1 66515U 25246C   26162.19643143  .00041640  00000+0  26187-3 0  9991
2 66515  41.4739 344.6241 0007105 312.3917  47.6325 15.75880017 32796
